{
    "links": {
        "self": "http://www.neowsapp.com/rest/v1/neo/54016209?api_key=iIulBulltgU6a56xZRHN4H3l9WmuAYTsLGpBGhQ2"
    },
    "id": "54016209",
    "neo_reference_id": "54016209",
    "name": "(2020 FR)",
    "designation": "2020 FR",
    "nasa_jpl_url": "http://ssd.jpl.nasa.gov/sbdb.cgi?sstr=54016209",
    "absolute_magnitude_h": 26.13,
    "estimated_diameter": {
        "kilometers": {
            "estimated_diameter_min": 0.0157962856,
            "estimated_diameter_max": 0.0353215683
        },
        "meters": {
            "estimated_diameter_min": 15.796285576,
            "estimated_diameter_max": 35.3215683399
        },
        "miles": {
            "estimated_diameter_min": 0.0098153538,
            "estimated_diameter_max": 0.0219477982
        },
        "feet": {
            "estimated_diameter_min": 51.8250855692,
            "estimated_diameter_max": 115.8844142724
        }
    },
    "is_potentially_hazardous_asteroid": false,
    "close_approach_data": [
        {
            "close_approach_date": "2020-03-12",
            "close_approach_date_full": "2020-Mar-12 23:25",
            "epoch_date_close_approach": 1584055500000,
            "relative_velocity": {
                "kilometers_per_second": "19.5720674594",
                "kilometers_per_hour": "70459.4428538836",
                "miles_per_hour": "43780.7576999589"
            },
            "miss_distance": {
                "astronomical": "0.0143943088",
                "lunar": "5.5993861232",
                "kilometers": "2153357.936602256",
                "miles": "1338034.5763168928"
            },
            "orbiting_body": "Earth"
        }
    ],
    "orbital_data": {
        "orbit_id": "1",
        "orbit_determination_date": "2020-03-17 15:42:26",
        "first_observation_date": "2020-03-16",
        "last_observation_date": "2020-03-17",
        "data_arc_in_days": 1,
        "observations_used": 25,
        "orbit_uncertainty": "8",
        "minimum_orbit_intersection": ".013182",
        "jupiter_tisserand_invariant": "3.073",
        "epoch_osculation": "2458925.5",
        "eccentricity": ".7221563166252397",
        "semi_major_axis": "2.431102938279954",
        "inclination": "9.442218944387108",
        "ascending_node_longitude": "177.3701989611488",
        "orbital_period": "1384.533438980321",
        "perihelion_distance": ".675466595034905",
        "perihelion_argument": "278.8393919476582",
        "aphelion_distance": "4.186739281525004",
        "perihelion_time": "2458877.796453205398",
        "mean_anomaly": "12.40365625167166",
        "mean_motion": ".2600153884799867",
        "equinox": "J2000",
        "orbit_class": {
            "orbit_class_type": "APO",
            "orbit_class_description": "Near-Earth asteroid orbits which cross the Earth’s orbit similar to that of 1862 Apollo",
            "orbit_class_range": "a (semi-major axis) > 1.0 AU; q (perihelion) < 1.017 AU"
        }
    },
    "is_sentry_object": false
}